GPS BIIR-2  (PRN 13)    
1 24876U 97035A   26115.35210712  .00000055  00000+0  00000+0 0  9995
2 24876  55.9670 100.6395 0099880  56.1970 304.7489  2.00563818210895
GPS BIIR-5  (PRN 22)    
1 26407U 00040A   26114.45458854 -.00000037  00000+0  00000+0 0  9999
2 26407  54.8617 217.2959 0121903 302.4845  64.7202  2.00569428188878
GPS BIIR-8  (PRN 16)    
1 27663U 03005A   26115.26977762 -.00000045  00000+0  00000+0 0  9991
2 27663  54.8929 217.0709 0148200  52.9584 317.9588  2.00563368170256
GPS BIIR-11 (PRN 19)    
1 28190U 04009A   26115.54239911 -.00000037  00000+0  00000+0 0  9991
2 28190  54.8745 277.8127 0113634 170.7965 191.3848  2.00556347161893
GPS BIIR-13 (PRN 02)    
1 28474U 04045A   26114.75287337 -.00000070  00000+0  00000+0 0  9990
2 28474  55.1665 327.0483 0170086 314.9297 262.4767  2.00553350157357
GPS BIIRM-1 (PRN 17)    
1 28874U 05038A   26115.76711347 -.00000040  00000+0  00000+0 0  9999
2 28874  54.9222 275.2914 0127786 295.8447 254.9889  2.00569269150780
INMARSAT 4-F2 (SOUTHPA*)
1 28899U 05044A   26115.78030875 -.00000271  00000+0  00000+0 0  9991
2 28899   5.0292  43.7580 0002704 347.7503 246.6499  1.00272238 74999
GPS BIIRM-2 (PRN 31)    
1 29486U 06042A   26115.16283579  .00000043  00000+0  00000+0 0  9992
2 29486  54.7024 153.4444 0106145  53.4415 318.7117  2.00572767143335
GPS BIIRM-3 (PRN 12)    
1 29601U 06052A   26114.57003035 -.00000038  00000+0  00000+0 0  9998
2 29601  54.9441 216.1310 0086480  90.2480 270.7556  2.00555028142332
GPS BIIRM-4 (PRN 15)    
1 32260U 07047A   26115.87227631  .00000010  00000+0  00000+0 0  9991
2 32260  54.0579  82.2205 0164753  86.4856 275.3782  2.00557893135762
COSMOS 2433 (720)       
1 32275U 07052A   26114.88955959 -.00000025  00000+0  00000+0 0  9991
2 32275  65.6073 317.7278 0000877 210.0462 149.9789  2.13103913143929
COSMOS 2432 (719)       
1 32276U 07052B   26115.20217785 -.00000026  00000+0  00000+0 0  9998
2 32276  65.6222 317.8438 0009053 337.4405 206.4819  2.13103026143952
GPS BIIRM-5 (PRN 29)    
1 32384U 07062A   26115.44177867 -.00000036  00000+0  00000+0 0  9992
2 32384  55.0752 276.2714 0034544 162.3254  13.9135  2.00556762134450
COSMOS 2434 (721)       
1 32393U 07065A   26113.26133750 -.00000006  00000+0  00000+0 0  9993
2 32393  64.3156 193.7675 0001761  53.0873  27.9132  2.13101316142601
COSMOS 2436 (723)       
1 32395U 07065C   26114.86144604 -.00000017  00000+0  00000+0 0  9994
2 32395  64.3242 193.7851 0017184 359.7473   1.3358  2.13100207142595
GPS BIIRM-6 (PRN 07)    
1 32711U 08012A   26115.28922097  .00000046  00000+0  00000+0 0  9997
2 32711  54.4881 152.0383 0209670 247.0859 110.7495  2.00570935132696
GPS BIIRM-8 (PRN 05)    
1 35752U 09043A   26115.78310785 -.00000101  00000+0  00000+0 0  9993
2 35752  56.1794  29.5103 0052955  81.3411 288.6250  2.00557111122312
